FORMOSAT 7-2            
1 44351U 19036N   26068.46036694  .00003823  00000+0  30629-3 0  9994
2 44351  23.9982 100.9036 0000971  99.0828 260.9782 14.96019264368636
SATELIOT_3              
1 60552U 24149CN  26068.79802274  .00002865  00000+0  25003-3 0  9992
2 60552  97.6866 147.0596 0005831  63.3535 296.8284 14.97601684 85206
